#aV2024  8  5  0  0  0.00000000     288 DD+AD WGS84 FIT  NGA
## 2326  86400.00000000   300.00000000 60527 0.0000000000000
+   31     2  3  4  5  6  7  8  9 10 11 12 13 14 15 16 17 18
+         19 20 21 22 23 24 25 26 27 28 29 30 31 32  0  0  0
+          0  0  0  0  0  0  0  0  0  0  0  0  0  0  0  0  0
+          0  0  0  0  0  0  0  0  0  0  0  0  0  0  0  0  0
+          0  0  0  0  0  0  0  0  0  0  0  0  0  0  0  0  0
++         2  2  2  2  2  2  2  2  2  2  2  2  2  2  2  2  2
++         2  2  2  2  2  2  2  2  2  2  2  2  2  2  0  0  0
++         0  0  0  0  0  0  0  0  0  0  0  0  0  0  0  0  0
++         0  0  0  0  0  0  0  0  0  0  0  0  0  0  0  0  0
++         0  0  0  0  0  0  0  0  0  0  0  0  0  0  0  0  0
%c cc cc ccc ccc cccc cccc cccc cccc ccccc ccccc ccccc ccccc
%c cc cc ccc ccc cccc cccc cccc cccc ccccc ccccc ccccc ccccc
%f  0.0000000  0.000000000  0.00000000000  0.000000000000000
%f  0.0000000  0.000000000  0.00000000000  0.000000000000000
%i    0    0    0    0      0      0      0      0         0
%i    0    0    0    0      0      0      0      0         0
/*      NGA, ST. LOUIS,MO.                                  
/*   EPHEMERIS COMPUTED FROM 2 DAYS OF DATA                 
/*   EPOCHA v9 SMOOTHER                                     
/*   G2296 IERS2010 SATIGS SATAPC                           
*  2024  8  5  9  5  0.00000000
P  2  14431.508397  -5872.683046  21952.956689   -385.157384                    
V  2   4356.361513  26418.151431   4606.562245      0.075485                    
P  3  23036.502144 -12695.086501   3039.872558    487.648144                    
V  3  -2231.905828   4015.991769  32055.447981      0.151961                    
P  4  19844.295759  -2957.286945 -17460.345269    418.038055                    
V  4  18720.872173  11903.812431  19107.482083      0.075478                    
P  5 -20556.844450    663.861051 -17032.180630   -182.156696                    
V  5  16243.864423 -13725.803125 -20286.384597     -0.013007                    
P  6  -5176.607514 -25252.269977  -6102.065025    118.042793                    
V  6   1555.991187  -7910.947995  31200.041157     -0.239007                    
P  7   6689.237452 -22587.395215 -11276.482275    -56.885369                    
V  7   4094.628498  15086.821624 -27021.724235      0.064467                    
P  8  24999.278910   5114.610792   8012.882302    303.465581                    
V  8   8246.028990   6555.566489 -29074.078487      0.150486                    
P  9   9628.630350 -12222.073657 -21618.181051    301.577631                    
V  9  24526.793007  11859.665692   4181.983469      0.153975                    
P 10   -910.821796  16941.173685  20552.537446    -85.159703                    
V 10 -21914.641666  13373.739236 -12437.136642     -0.106615                    
P 11 -12316.967897 -15744.003806 -17495.300559   -716.719047                    
V 11   1232.158550 -22248.227001  19062.481373     -0.059608                    
P 12 -24168.814106   9352.079475   5422.757956   -527.927740                    
V 12   4929.449046  -6005.793205  30795.395628     -0.029970                    
P 13 -22609.260271 -14022.585131   1925.126906    668.950680                    
V 13   -932.029782  -3384.915229 -31729.178806      0.022600                    
P 14   5014.149816 -18665.856274  18165.226462    465.284568                    
V 14  20574.458306 -10696.327638 -16928.595225      0.087820                    
P 15 -25287.335025  -2157.163444   7623.515957    189.083138                    
V 15  -8858.588704  -6293.745309 -29032.399619      0.043032                    
P 16  18675.471229   4788.759687 -18789.126916   -217.096912                    
V 16 -19677.441042  11990.650816 -16364.779223      0.104492                    
P 17  -5251.915496 -18139.643697  19029.997965    662.136309                    
V 17  20858.967662  10526.660467  16311.377591     -0.089097                    
P 18  -6670.446970  22979.461662 -11276.609707   -643.445227                    
V 18  -2824.797308 -14289.553930 -27617.127883     -0.034178                    
P 19 -14041.043221 -19027.270990  12340.466417    520.327408                    
V 19  14316.722326   6861.841118  26113.175552      0.052262                    
P 20 -13766.055076  -7700.180514 -21284.926263    372.010035                    
V 20  19261.807334 -19249.869216  -5624.595685     -0.004072                    
P 21  15666.501492   1237.355477  21916.038603    104.747226                    
V 21   4233.560169  26409.326731  -3574.499281     -0.022001                    
P 22  -2672.017294 -15774.544204  21656.404470    -47.796715                    
V 22  23478.632416 -12260.155263  -5863.129082     -0.042872                    
P 23 -12991.531812  19380.509081  12511.729414    290.210468                    
V 23 -14137.200405   7528.631961 -26597.537672      0.087357                    
P 24 -15182.143777   3602.423964  21048.808524   -485.510896                    
V 24  -4786.913255 -27453.357961   1628.763376     -0.009653                    
P 25 -19510.607025  17327.948394  -4474.528061    499.092999                    
V 25  -6247.950859    302.631269  30984.152246      0.002598                    
P 26   8445.363128  13591.082396 -21334.276363    106.619849                    
V 26 -21380.387596  16293.151785   2303.481265     -0.074111                    
P 27  23225.759179  13190.407797  -2381.587543    -32.546759                    
V 27  -3426.640297   1009.981058 -31304.595615     -0.006303                    
P 28   4971.309679  25836.954099  -3637.627522   -360.222003                    
V 28  -2320.597248   4844.128219  31324.519407     -0.152222                    
P 29 -13755.279898   8605.627908 -21097.899742   -585.810685                    
V 29 -22541.676910 -14185.335043   8805.196624      0.021196                    
P 30   -430.658369 -26350.943023  -1618.217207   -345.474908                    
V 30   3981.475179   2016.649050 -31266.010364      0.067273                    
P 31  10997.073574  19340.917126 -14432.703300   -226.163849                    
V 31  -1743.999781  18201.778601  23805.069892      0.003439                    
P 32   8290.817780  17972.622490  18020.717016   -607.946657                    
V 32 -20733.804411  -8524.356288  18061.901490      0.025437                    
EOF
